NORAD_CAT_ID,OBJECT_NAME,OBJECT_TYPE,EPOCH,MEAN_MOTION,ECCENTRICITY,INCLINATION,RA_OF_ASC_NODE,ARG_OF_PERICENTER,MEAN_ANOMALY,BSTAR,MEAN_MOTION_DOT,MEAN_MOTION_DDOT,TLE_LINE0,TLE_LINE1,TLE_LINE2,SEMIMAJOR_AXIS,PERIOD,APOGEE,PERIGEE,DECAYED
53774.0,STARLINK-4719,PAYLOAD,2023-04-09 18:56:21,15.08849362,0.0002327,53.219,24.5335,107.9588,252.1658,0.00018766,2.7e-05,0.0,0 STARLINK-4719,1 53774U 22111B   23099.78914007  .00002700  00000-0  18766-3 0  9992,2 53774  53.2190  24.5335 0002327 107.9588 252.1658 15.08849362 32945,6917.852,95.437,541.327,538.107,0.0
53774.0,STARLINK-4719,PAYLOAD,2023-04-10 04:28:40,15.08846518,0.0001168,53.2181,22.7455,99.4112,260.7012,0.00010444,1.375e-05,0.0,0 STARLINK-4719,1 53774U 22111B   23100.18658044  .00001375  00000-0  10444-3 0  9997,2 53774  53.2181  22.7455 0001168  99.4112 260.7012 15.08846518 32048,6917.86,95.437,540.533,538.917,0.0
53774.0,STARLINK-4719,PAYLOAD,2023-04-11 04:19:27,15.08849705,0.0001152,53.218,18.2844,103.4932,256.6189,0.00040671,6.193e-05,0.0,0 STARLINK-4719,1 53774U 22111B   23101.18017720  .00006193  00000-0  40671-3 0  9996,2 53774  53.2180  18.2844 0001152 103.4932 256.6189 15.08849705 33151,6917.851,95.437,540.513,538.919,0.0
53774.0,STARLINK-4719,PAYLOAD,2023-04-12 02:34:51,15.08838048,0.0001272,53.2182,14.1224,89.7897,270.3241,3.2537e-08,-2.87e-06,0.0,0 STARLINK-4719,1 53774U 22111B   23102.10754533 -.00000287  00000-0  32537-7 0  9994,2 53774  53.2182  14.1224 0001272  89.7897 270.3241 15.08838048 32338,6917.886,95.438,540.631,538.871,0.0
53774.0,STARLINK-4719,PAYLOAD,2023-04-13 00:50:15,15.08846733,0.0001264,53.2177,9.96,83.3126,276.801,1.3767e-06,-2.66e-06,0.0,0 STARLINK-4719,1 53774U 22111B   23103.03490198 -.00000266  00000-0  13767-5 0  9990,2 53774  53.2177   9.9600 0001264  83.3126 276.8010 15.08846733 33435,6917.86,95.437,540.599,538.85,0.0
53774.0,STARLINK-4719,PAYLOAD,2023-04-14 02:16:25,15.08844682,0.0001192,53.2172,5.203,80.0865,280.0262,0.00018337,2.632e-05,0.0,0 STARLINK-4719,1 53774U 22111B   23104.09474460  .00002632  00000-0  18337-3 0  9995,2 53774  53.2172   5.2030 0001192  80.0865 280.0262 15.08844682 33594,6917.866,95.437,540.556,538.906,0.0
53774.0,STARLINK-4719,PAYLOAD,2023-04-14 16:34:54,15.08839113,0.0001371,53.2174,2.5266,77.9987,282.1159,0.00011412,1.529e-05,0.0,0 STARLINK-4719,1 53774U 22111B   23104.69090885  .00001529  00000-0  11412-3 0  9997,2 53774  53.2174   2.5266 0001371  77.9987 282.1159 15.08839113 32721,6917.883,95.438,540.697,538.8,0.0
53774.0,STARLINK-4719,PAYLOAD,2023-04-15 02:07:12,15.08850837,0.0001397,53.2173,0.7435,78.9786,281.1363,0.0002981,4.461e-05,0.0,0 STARLINK-4719,1 53774U 22111B   23105.08834321  .00004461  00000-0  29810-3 0  9991,2 53774  53.2173   0.7435 0001397  78.9786 281.1363 15.08850837 33749,6917.847,95.437,540.679,538.746,0.0
53774.0,STARLINK-4719,PAYLOAD,2023-04-15 21:11:50,15.08843881,0.0001099,53.2169,357.1745,101.2982,258.8134,0.00012989,1.78e-05,0.0,0 STARLINK-4719,1 53774U 22111B   23105.88322480  .00001780  00000-0  12989-3 0  9997,2 53774  53.2169 357.1745 0001099 101.2982 258.8134 15.08843881 33865,6917.869,95.437,540.494,538.973,0.0
53774.0,STARLINK-4719,PAYLOAD,2023-04-15 22:47:13,15.08843896,9.68e-05,53.2169,356.8765,106.9518,253.158,9.371e-05,1.204e-05,0.0,0 STARLINK-4719,1 53774U 22111B   23105.94946323  .00001204  00000-0  93710-4 0  9995,2 53774  53.2169 356.8765 0000968 106.9518 253.1580 15.08843896 32918,6917.868,95.437,540.403,539.064,0.0
53774.0,STARLINK-4719,PAYLOAD,2023-04-16 00:22:36,15.08848233,0.0001162,53.2167,356.5789,107.1916,252.9203,0.00018506,2.659e-05,0.0,0 STARLINK-4719,1 53774U 22111B   23106.01570173  .00002659  00000-0  18506-3 0  9994,2 53774  53.2167 356.5789 0001162 107.1916 252.9203 15.08848233 33887,6917.855,95.437,540.524,538.916,0.0
53774.0,STARLINK-4719,PAYLOAD,2023-04-16 21:02:38,15.08836993,0.0001401,53.2177,352.7133,82.1441,277.971,2.8976e-05,1.73e-06,0.0,0 STARLINK-4719,1 53774U 22111B   23106.87683123  .00000173  00000-0  28976-4 0  9990,2 53774  53.2177 352.7133 0001401  82.1441 277.9710 15.08836993 34016,6917.89,95.438,540.724,538.785,0.0
53774.0,STARLINK-4719,PAYLOAD,2023-04-17 01:48:47,15.08844238,0.0001227,53.2175,351.8215,97.7048,262.4083,0.00020918,3.043e-05,0.0,0 STARLINK-4719,1 53774U 22111B   23107.07554872  .00003043  00000-0  20918-3 0  9997,2 53774  53.2175 351.8215 0001227  97.7048 262.4083 15.08844238 33085,6917.867,95.437,540.581,538.884,0.0
53774.0,STARLINK-4719,PAYLOAD,2023-04-17 19:18:02,15.08838218,0.0001358,53.218,348.5517,104.2757,255.8386,0.00019849,2.872e-05,0.0,0 STARLINK-4719,1 53774U 22111B   23107.80419499  .00002872  00000-0  19849-3 0  9993,2 53774  53.2180 348.5517 0001358 104.2757 255.8386 15.08838218 33190,6917.886,95.438,540.69,538.811,0.0
53774.0,STARLINK-4719,PAYLOAD,2023-04-17 20:53:25,15.0884042,0.000123,53.2181,348.2552,96.5936,263.5196,0.00019744,2.856e-05,0.0,0 STARLINK-4719,1 53774U 22111B   23107.87043448  .00002856  00000-0  19744-3 0  9993,2 53774  53.2181 348.2552 0001230  96.5936 263.5196 15.08840420 34169,6917.879,95.438,540.595,538.893,0.0
53774.0,STARLINK-4719,PAYLOAD,2023-04-18 01:39:34,15.08849179,0.0001275,53.2176,347.3618,98.3419,261.7718,0.00049827,7.653e-05,0.0,0 STARLINK-4719,1 53774U 22111B   23108.06915156  .00007653  00000-0  49827-3 0  9994,2 53774  53.2176 347.3618 0001275  98.3419 261.7718 15.08849179 34194,6917.852,95.437,540.599,538.835,0.0
53774.0,STARLINK-4719,PAYLOAD,2023-04-18 15:58:03,15.0884348,0.0001862,53.2184,344.6886,89.0706,271.05,0.00024912,3.679e-05,0.0,0 STARLINK-4719,1 53774U 22111B   23108.66531571  .00003679  00000-0  24912-3 0  9997,2 53774  53.2184 344.6886 0001862  89.0706 271.0500 15.08843480 34280,6917.87,95.437,541.023,538.447,0.0
53774.0,STARLINK-4719,PAYLOAD,2023-04-18 23:54:58,15.08846782,0.0001397,53.218,343.1991,96.758,263.3571,0.0002415,3.558e-05,0.0,0 STARLINK-4719,1 53774U 22111B   23108.99651343  .00003558  00000-0  24150-3 0  9993,2 53774  53.2180 343.1991 0001397  96.7580 263.3571 15.08846782 33374,6917.86,95.437,540.691,538.758,0.0
53774.0,STARLINK-4719,PAYLOAD,2023-04-20 01:21:08,15.08859912,0.0001075,53.2162,338.4392,81.201,278.9104,0.00039153,5.952e-05,0.0,0 STARLINK-4719,1 53774U 22111B   23110.05634569  .00005952  00000-0  39153-3 0  9993,2 53774  53.2162 338.4392 0001075  81.2010 278.9104 15.08859912 33537,6917.82,95.436,540.428,538.941,0.0
53774.0,STARLINK-4719,PAYLOAD,2023-04-20 22:01:09,15.08834565,0.0001388,53.217,334.5752,81.284,278.8309,-7.5154e-05,-1.484e-05,0.0,0 STARLINK-4719,1 53774U 22111B   23110.91747667 -.00001484  00000-0 -75154-4 0  9992,2 53774  53.2170 334.5752 0001388  81.2840 278.8309 15.08834565 33668,6917.897,95.438,540.722,538.802,0.0
53774.0,STARLINK-4719,PAYLOAD,2023-04-21 13:55:01,15.08839599,0.00012,53.2161,331.5997,89.4967,270.6162,-6.3326e-05,-1.296e-05,0.0,0 STARLINK-4719,1 53774U 22111B   23111.57987624 -.00001296  00000-0 -63326-4 0  9993,2 53774  53.2161 331.5997 0001200  89.4967 270.6162 15.08839599 34726,6917.882,95.438,540.577,538.916,0.0
53774.0,STARLINK-4719,PAYLOAD,2023-04-21 21:51:57,15.08839713,0.0001228,53.2161,330.1129,90.1924,269.9209,2.4648e-05,1.04e-06,0.0,0 STARLINK-4719,1 53774U 22111B   23111.91107730  .00000104  00000-0  24648-4 0  9992,2 53774  53.2161 330.1129 0001228  90.1924 269.9209 15.08839713 34776,6917.881,95.438,540.596,538.897,0.0
53774.0,STARLINK-4719,PAYLOAD,2023-04-22 13:45:48,15.08845396,0.0002186,53.2164,327.1435,70.1272,289.9956,0.00031691,4.76e-05,0.0,0 STARLINK-4719,1 53774U 22111B   23112.57347829  .00004760  00000-0  31691-3 0  9997,2 53774  53.2164 327.1435 0002186  70.1272 289.9956 15.08845396 33913,6917.864,95.437,541.241,538.217,0.0
53774.0,STARLINK-4719,PAYLOAD,2023-04-22 16:56:34,15.08842856,0.0001334,53.2161,326.5452,93.7224,266.3921,0.00022445,3.286e-05,0.0,0 STARLINK-4719,1 53774U 22111B   23112.70595692  .00003286  00000-0  22445-3 0  9994,2 53774  53.2161 326.5452 0001334  93.7224 266.3921 15.08842856 34891,6917.872,95.437,540.66,538.814,0.0
53774.0,STARLINK-4719,PAYLOAD,2023-04-23 13:36:35,15.0884052,0.0001359,53.2158,322.6804,85.1937,274.921,0.00015139,2.122e-05,0.0,0 STARLINK-4719,1 53774U 22111B   23113.56707772  .00002122  00000-0  15139-3 0  9993,2 53774  53.2158 322.6804 0001359  85.1937 274.9210 15.08840520 34069,6917.879,95.438,540.684,538.804,0.0
53774.0,STARLINK-4719,PAYLOAD,2023-04-23 19:58:08,15.08846376,0.0001347,53.2156,321.4912,77.6664,282.4479,0.00027632,4.113e-05,0.0,0 STARLINK-4719,1 53774U 22111B   23113.83203710  .00004113  00000-0  27632-3 0  9999,2 53774  53.2156 321.4912 0001347  77.6664 282.4479 15.08846376 35061,6917.861,95.437,540.658,538.794,0.0
53774.0,STARLINK-4719,PAYLOAD,2023-04-23 23:08:54,15.08847274,0.0001385,53.2155,320.8957,80.5655,279.5494,0.00028723,4.287e-05,0.0,0 STARLINK-4719,1 53774U 22111B   23113.96451659  .00004287  00000-0  28723-3 0  9994,2 53774  53.2155 320.8957 0001385  80.5655 279.5494 15.08847274 35081,6917.858,95.437,540.681,538.765,0.0
53774.0,STARLINK-4719,PAYLOAD,2023-04-25 00:35:02,15.08891379,0.000127,53.2152,316.1369,80.1417,279.9718,0.0011589,0.0001823,0.0,0 STARLINK-4719,1 53774U 22111B   23115.02433429  .00018230  00000-0  11589-2 0  9992,2 53774  53.2152 316.1369 0001270  80.1417 279.9718 15.08891379 34287,6917.723,95.434,540.467,538.71,0.0
53774.0,STARLINK-4719,PAYLOAD,2023-04-25 13:18:09,15.08793895,0.0001282,53.2161,313.7575,104.3779,255.7355,-0.0016207,-0.00025956,0.0,0 STARLINK-4719,1 53774U 22111B   23115.55427704 -.00025956  00000-0 -16207-2 0  9996,2 53774  53.2161 313.7575 0001282 104.3779 255.7355 15.08793895 35321,6918.021,95.44,540.773,538.999,0.0
53774.0,STARLINK-4719,PAYLOAD,2023-04-26 00:25:53,15.08779991,0.0001415,53.216,311.676,99.0821,261.0332,-0.00025673,-4.365e-05,0.0,0 STARLINK-4719,1 53774U 22111B   23116.01797909 -.00004365  00000-0 -25673-3 0  9994,2 53774  53.2160 311.6760 0001415  99.0821 261.0332 15.08779991 35392,6918.064,95.441,540.908,538.95,0.0
